[{"OBJECT_NAME":"ONEWEB-0701","OBJECT_ID":"2024-188P","EPOCH":"2026-03-09T21:25:26.568768","MEAN_MOTION":13.10369754,"ECCENTRICITY":0.00026623,"INCLINATION":87.8777,"RA_OF_ASC_NODE":56.0329,"ARG_OF_PERICENTER":91.8814,"MEAN_ANOMALY":268.2618,"EPHEMERIS_TYPE":0,"CLASSIFICATION_TYPE":"U","NORAD_CAT_ID":61607,"ELEMENT_SET_NO":999,"REV_AT_EPOCH":7030,"BSTAR":-0.00011133696,"MEAN_MOTION_DOT":-2.6e-7,"MEAN_MOTION_DDOT":0},{"OBJECT_NAME":"THORAD AGENA D DEB","OBJECT_ID":"1970-025KU","EPOCH":"2026-03-09T01:26:21.181632","MEAN_MOTION":13.1125538,"ECCENTRICITY":0.02029601,"INCLINATION":99.8103,"RA_OF_ASC_NODE":111.1093,"ARG_OF_PERICENTER":179.5706,"MEAN_ANOMALY":211.2087,"EPHEMERIS_TYPE":0,"CLASSIFICATION_TYPE":"U","NORAD_CAT_ID":5389,"ELEMENT_SET_NO":999,"REV_AT_EPOCH":67430,"BSTAR":0.00017705946,"MEAN_MOTION_DOT":3.0e-7,"MEAN_MOTION_DDOT":0}]
